{"fetched_at":"2026-07-10T07:59:19.508Z","source":"https://celestrak.org/NORAD/elements/gp.php?NAME=SENTINEL&FORMAT=JSON","constellation":"sentinel-5p","records":[{"OBJECT_NAME":"SENTINEL-5P","OBJECT_ID":"2017-064A","EPOCH":"2026-07-09T06:20:07.097856","CLASSIFICATION_TYPE":"U","MEAN_MOTION":14.19522668,"ECCENTRICITY":0.00010927,"INCLINATION":98.7929,"RA_OF_ASC_NODE":132.2387,"ARG_OF_PERICENTER":91.8163,"MEAN_ANOMALY":268.3138,"EPHEMERIS_TYPE":0,"NORAD_CAT_ID":42969,"ELEMENT_SET_NO":999,"REV_AT_EPOCH":45269,"BSTAR":0.00002704477,"MEAN_MOTION_DOT":1.3e-7,"MEAN_MOTION_DDOT":0}]}
